[{"OBJECT_NAME":"STARLINK-33751","OBJECT_ID":"2025-071V","EPOCH":"2026-02-03T02:42:03.854304","MEAN_MOTION":15.30204555,"ECCENTRICITY":9.238e-5,"INCLINATION":53.1593,"RA_OF_ASC_NODE":300.6616,"ARG_OF_PERICENTER":103.8424,"MEAN_ANOMALY":256.2679,"EPHEMERIS_TYPE":0,"CLASSIFICATION_TYPE":"U","NORAD_CAT_ID":63512,"ELEMENT_SET_NO":999,"REV_AT_EPOCH":4745,"BSTAR":0.00095357115,"MEAN_MOTION_DOT":0.00027993,"MEAN_MOTION_DDOT":0},{"OBJECT_NAME":"STARLINK-33750","OBJECT_ID":"2025-071W","EPOCH":"2026-02-03T02:46:37.189344","MEAN_MOTION":15.30210004,"ECCENTRICITY":8.036e-5,"INCLINATION":53.1595,"RA_OF_ASC_NODE":300.6804,"ARG_OF_PERICENTER":114.4753,"MEAN_ANOMALY":245.6332,"EPHEMERIS_TYPE":0,"CLASSIFICATION_TYPE":"U","NORAD_CAT_ID":63513,"ELEMENT_SET_NO":999,"REV_AT_EPOCH":4745,"BSTAR":0.0010411492,"MEAN_MOTION_DOT":0.00030613,"MEAN_MOTION_DDOT":0},{"OBJECT_NAME":"STARLINK-33786","OBJECT_ID":"2025-071X","EPOCH":"2026-02-03T02:58:46.882272","MEAN_MOTION":15.30209781,"ECCENTRICITY":0.00010485,"INCLINATION":53.1609,"RA_OF_ASC_NODE":300.7333,"ARG_OF_PERICENTER":92.5903,"MEAN_ANOMALY":267.5217,"EPHEMERIS_TYPE":0,"CLASSIFICATION_TYPE":"U","NORAD_CAT_ID":63514,"ELEMENT_SET_NO":999,"REV_AT_EPOCH":4709,"BSTAR":0.00093482025,"MEAN_MOTION_DOT":0.00027438,"MEAN_MOTION_DDOT":0},{"OBJECT_NAME":"STARLINK-33796","OBJECT_ID":"2025-071Y","EPOCH":"2026-02-02T18:06:12.497184","MEAN_MOTION":15.30221004,"ECCENTRICITY":0.0002356,"INCLINATION":53.1577,"RA_OF_ASC_NODE":301.9753,"ARG_OF_PERICENTER":100.8942,"MEAN_ANOMALY":259.2324,"EPHEMERIS_TYPE":0,"CLASSIFICATION_TYPE":"U","NORAD_CAT_ID":63515,"ELEMENT_SET_NO":999,"REV_AT_EPOCH":4742,"BSTAR":0.0011092369,"MEAN_MOTION_DOT":0.0003266,"MEAN_MOTION_DDOT":0},{"OBJECT_NAME":"STARLINK-33785","OBJECT_ID":"2025-071Z","EPOCH":"2026-02-03T02:54:13.376160","MEAN_MOTION":15.30199783,"ECCENTRICITY":0.00013114,"INCLINATION":53.1612,"RA_OF_ASC_NODE":300.7111,"ARG_OF_PERICENTER":87.2807,"MEAN_ANOMALY":272.8344,"EPHEMERIS_TYPE":0,"CLASSIFICATION_TYPE":"U","NORAD_CAT_ID":63516,"ELEMENT_SET_NO":999,"REV_AT_EPOCH":4745,"BSTAR":0.00054707166,"MEAN_MOTION_DOT":0.00015878,"MEAN_MOTION_DDOT":0},{"OBJECT_NAME":"STARLINK-33803","OBJECT_ID":"2025-071AA","EPOCH":"2026-02-02T18:16:50.508480","MEAN_MOTION":15.30216273,"ECCENTRICITY":9.856e-5,"INCLINATION":53.1595,"RA_OF_ASC_NODE":302.0173,"ARG_OF_PERICENTER":50.6784,"MEAN_ANOMALY":309.4304,"EPHEMERIS_TYPE":0,"CLASSIFICATION_TYPE":"U","NORAD_CAT_ID":63517,"ELEMENT_SET_NO":999,"REV_AT_EPOCH":4742,"BSTAR":0.00090051619,"MEAN_MOTION_DOT":0.0002642,"MEAN_MOTION_DDOT":0},{"OBJECT_NAME":"STARLINK-33807","OBJECT_ID":"2025-071AB","EPOCH":"2026-02-03T00:56:36.907584","MEAN_MOTION":15.30189772,"ECCENTRICITY":0.00013459,"INCLINATION":53.1587,"RA_OF_ASC_NODE":303.0433,"ARG_OF_PERICENTER":87.3436,"MEAN_ANOMALY":272.7719,"EPHEMERIS_TYPE":0,"CLASSIFICATION_TYPE":"U","NORAD_CAT_ID":63518,"ELEMENT_SET_NO":999,"REV_AT_EPOCH":4743,"BSTAR":0.00044177936,"MEAN_MOTION_DOT":0.00012743,"MEAN_MOTION_DDOT":0},{"OBJECT_NAME":"STARLINK-33787","OBJECT_ID":"2025-071AC","EPOCH":"2026-02-03T02:38:15.742752","MEAN_MOTION":15.30214279,"ECCENTRICITY":0.00016176,"INCLINATION":53.1592,"RA_OF_ASC_NODE":302.7734,"ARG_OF_PERICENTER":87.6767,"MEAN_ANOMALY":272.4419,"EPHEMERIS_TYPE":0,"CLASSIFICATION_TYPE":"U","NORAD_CAT_ID":63519,"ELEMENT_SET_NO":999,"REV_AT_EPOCH":4707,"BSTAR":0.00043594719,"MEAN_MOTION_DOT":0.0001258,"MEAN_MOTION_DDOT":0},{"OBJECT_NAME":"STARLINK-11669 [DTC]","OBJECT_ID":"2025-075A","EPOCH":"2026-02-03T05:29:27.595968","MEAN_MOTION":15.70909203,"ECCENTRICITY":0.0007835,"INCLINATION":43.0008,"RA_OF_ASC_NODE":1.0907,"ARG_OF_PERICENTER":232.8418,"MEAN_ANOMALY":127.1735,"EPHEMERIS_TYPE":0,"CLASSIFICATION_TYPE":"U","NORAD_CAT_ID":63548,"ELEMENT_SET_NO":999,"REV_AT_EPOCH":4783,"BSTAR":0.00085278573,"MEAN_MOTION_DOT":0.00110935,"MEAN_MOTION_DDOT":0},{"OBJECT_NAME":"STARLINK-11665 [DTC]","OBJECT_ID":"2025-075B","EPOCH":"2026-02-03T04:36:09.561312","MEAN_MOTION":15.70887706,"ECCENTRICITY":9.991e-5,"INCLINATION":42.999,"RA_OF_ASC_NODE":1.6867,"ARG_OF_PERICENTER":208.9449,"MEAN_ANOMALY":151.1364,"EPHEMERIS_TYPE":0,"CLASSIFICATION_TYPE":"U","NORAD_CAT_ID":63549,"ELEMENT_SET_NO":999,"REV_AT_EPOCH":4782,"BSTAR":0.0019991056,"MEAN_MOTION_DOT":0.00264943,"MEAN_MOTION_DDOT":0},{"OBJECT_NAME":"STARLINK-11667 [DTC]","OBJECT_ID":"2025-075C","EPOCH":"2026-02-02T23:00:30.142944","MEAN_MOTION":15.70980076,"ECCENTRICITY":0.00025248,"INCLINATION":43.002,"RA_OF_ASC_NODE":3.391,"ARG_OF_PERICENTER":253.0289,"MEAN_ANOMALY":107.0303,"EPHEMERIS_TYPE":0,"CLASSIFICATION_TYPE":"U","NORAD_CAT_ID":63550,"ELEMENT_SET_NO":999,"REV_AT_EPOCH":4778,"BSTAR":0.0024351873,"MEAN_MOTION_DOT":0.00326529,"MEAN_MOTION_DDOT":0},{"OBJECT_NAME":"STARLINK-11695 [DTC]","OBJECT_ID":"2025-075D","EPOCH":"2026-02-03T05:30:48.392928","MEAN_MOTION":15.70882468,"ECCENTRICITY":0.00016979,"INCLINATION":42.9994,"RA_OF_ASC_NODE":1.0958,"ARG_OF_PERICENTER":293.3426,"MEAN_ANOMALY":66.7263,"EPHEMERIS_TYPE":0,"CLASSIFICATION_TYPE":"U","NORAD_CAT_ID":63551,"ELEMENT_SET_NO":999,"REV_AT_EPOCH":4783,"BSTAR":0.0017573677,"MEAN_MOTION_DOT":0.00231862,"MEAN_MOTION_DDOT":0},{"OBJECT_NAME":"STARLINK-11685 [DTC]","OBJECT_ID":"2025-075E","EPOCH":"2026-02-03T05:44:47.041440","MEAN_MOTION":15.70902144,"ECCENTRICITY":0.00018695,"INCLINATION":42.9994,"RA_OF_ASC_NODE":1.1725,"ARG_OF_PERICENTER":273.9987,"MEAN_ANOMALY":86.0667,"EPHEMERIS_TYPE":0,"CLASSIFICATION_TYPE":"U","NORAD_CAT_ID":63552,"ELEMENT_SET_NO":999,"REV_AT_EPOCH":4783,"BSTAR":0.0019437027,"MEAN_MOTION_DOT":0.00257509,"MEAN_MOTION_DDOT":0},{"OBJECT_NAME":"STARLINK-11697 [DTC]","OBJECT_ID":"2025-075F","EPOCH":"2026-02-03T05:52:25.887648","MEAN_MOTION":15.70916137,"ECCENTRICITY":0.00017982,"INCLINATION":42.9985,"RA_OF_ASC_NODE":1.2161,"ARG_OF_PERICENTER":298.4663,"MEAN_ANOMALY":61.6023,"EPHEMERIS_TYPE":0,"CLASSIFICATION_TYPE":"U","NORAD_CAT_ID":63553,"ELEMENT_SET_NO":999,"REV_AT_EPOCH":4783,"BSTAR":0.0023178734,"MEAN_MOTION_DOT":0.00309291,"MEAN_MOTION_DDOT":0},{"OBJECT_NAME":"STARLINK-11680 [DTC]","OBJECT_ID":"2025-075G","EPOCH":"2026-02-03T06:30:39.111264","MEAN_MOTION":15.70880324,"ECCENTRICITY":0.00019007,"INCLINATION":42.999,"RA_OF_ASC_NODE":1.4289,"ARG_OF_PERICENTER":254.8022,"MEAN_ANOMALY":105.2636,"EPHEMERIS_TYPE":0,"CLASSIFICATION_TYPE":"U","NORAD_CAT_ID":63554,"ELEMENT_SET_NO":999,"REV_AT_EPOCH":4783,"BSTAR":0.00039087888,"MEAN_MOTION_DOT":0.00050096,"MEAN_MOTION_DDOT":0},{"OBJECT_NAME":"STARLINK-11687 [DTC]","OBJECT_ID":"2025-075H","EPOCH":"2026-02-02T22:37:33.212928","MEAN_MOTION":15.7096013,"ECCENTRICITY":0.00011891,"INCLINATION":42.9988,"RA_OF_ASC_NODE":3.2593,"ARG_OF_PERICENTER":250.7757,"MEAN_ANOMALY":109.2982,"EPHEMERIS_TYPE":0,"CLASSIFICATION_TYPE":"U","NORAD_CAT_ID":63555,"ELEMENT_SET_NO":999,"REV_AT_EPOCH":4778,"BSTAR":0.0027864763,"MEAN_MOTION_DOT":0.00375633,"MEAN_MOTION_DDOT":0},{"OBJECT_NAME":"STARLINK-11626 [DTC]","OBJECT_ID":"2025-075J","EPOCH":"2026-02-03T05:22:02.339616","MEAN_MOTION":15.70871391,"ECCENTRICITY":0.0001154,"INCLINATION":42.9997,"RA_OF_ASC_NODE":1.9397,"ARG_OF_PERICENTER":224.3407,"MEAN_ANOMALY":135.7369,"EPHEMERIS_TYPE":0,"CLASSIFICATION_TYPE":"U","NORAD_CAT_ID":63556,"ELEMENT_SET_NO":999,"REV_AT_EPOCH":4782,"BSTAR":0.0016804973,"MEAN_MOTION_DOT":0.00221313,"MEAN_MOTION_DDOT":0},{"OBJECT_NAME":"STARLINK-11668 [DTC]","OBJECT_ID":"2025-075K","EPOCH":"2026-02-02T23:08:08.821536","MEAN_MOTION":15.70935657,"ECCENTRICITY":0.00023543,"INCLINATION":43.0039,"RA_OF_ASC_NODE":3.4305,"ARG_OF_PERICENTER":259.3245,"MEAN_ANOMALY":100.7358,"EPHEMERIS_TYPE":0,"CLASSIFICATION_TYPE":"U","NORAD_CAT_ID":63557,"ELEMENT_SET_NO":999,"REV_AT_EPOCH":4778,"BSTAR":0.001647923,"MEAN_MOTION_DOT":0.00217506,"MEAN_MOTION_DDOT":0},{"OBJECT_NAME":"STARLINK-11657 [DTC]","OBJECT_ID":"2025-075L","EPOCH":"2026-02-03T04:51:26.797536","MEAN_MOTION":15.70908996,"ECCENTRICITY":0.0001029,"INCLINATION":43.0002,"RA_OF_ASC_NODE":1.7683,"ARG_OF_PERICENTER":220.6003,"MEAN_ANOMALY":139.4788,"EPHEMERIS_TYPE":0,"CLASSIFICATION_TYPE":"U","NORAD_CAT_ID":63558,"ELEMENT_SET_NO":999,"REV_AT_EPOCH":4782,"BSTAR":0.0021701144,"MEAN_MOTION_DOT":0.00288738,"MEAN_MOTION_DDOT":0},{"OBJECT_NAME":"STARLINK-11606 [DTC]","OBJECT_ID":"2025-075M","EPOCH":"2026-02-03T05:37:08.425920","MEAN_MOTION":15.70911669,"ECCENTRICITY":0.00011725,"INCLINATION":42.9997,"RA_OF_ASC_NODE":1.1275,"ARG_OF_PERICENTER":288.0527,"MEAN_ANOMALY":72.0213,"EPHEMERIS_TYPE":0,"CLASSIFICATION_TYPE":"U","NORAD_CAT_ID":63559,"ELEMENT_SET_NO":999,"REV_AT_EPOCH":4783,"BSTAR":0.002383525,"MEAN_MOTION_DOT":0.0031836,"MEAN_MOTION_DDOT":0},{"OBJECT_NAME":"STARLINK-11592 [DTC]","OBJECT_ID":"2025-075N","EPOCH":"2026-02-03T06:00:04.635360","MEAN_MOTION":15.70926925,"ECCENTRICITY":0.00015357,"INCLINATION":42.999,"RA_OF_ASC_NODE":1.2551,"ARG_OF_PERICENTER":270.353,"MEAN_ANOMALY":89.7161,"EPHEMERIS_TYPE":0,"CLASSIFICATION_TYPE":"U","NORAD_CAT_ID":63560,"ELEMENT_SET_NO":999,"REV_AT_EPOCH":4783,"BSTAR":0.0026661012,"MEAN_MOTION_DOT":0.00358113,"MEAN_MOTION_DDOT":0},{"OBJECT_NAME":"STARLINK-32953","OBJECT_ID":"2025-075P","EPOCH":"2026-02-03T05:16:28.455456","MEAN_MOTION":15.27596937,"ECCENTRICITY":4.271e-5,"INCLINATION":42.9942,"RA_OF_ASC_NODE":105.4718,"ARG_OF_PERICENTER":277.6717,"MEAN_ANOMALY":82.4086,"EPHEMERIS_TYPE":0,"CLASSIFICATION_TYPE":"U","NORAD_CAT_ID":63561,"ELEMENT_SET_NO":999,"REV_AT_EPOCH":4665,"BSTAR":0.0011963018,"MEAN_MOTION_DOT":0.00032821,"MEAN_MOTION_DDOT":0},{"OBJECT_NAME":"STARLINK-32951","OBJECT_ID":"2025-075Q","EPOCH":"2026-02-03T05:10:54.965280","MEAN_MOTION":15.27594091,"ECCENTRICITY":2.244e-5,"INCLINATION":42.9922,"RA_OF_ASC_NODE":105.4163,"ARG_OF_PERICENTER":291.5907,"MEAN_ANOMALY":68.4921,"EPHEMERIS_TYPE":0,"CLASSIFICATION_TYPE":"U","NORAD_CAT_ID":63562,"ELEMENT_SET_NO":999,"REV_AT_EPOCH":4666,"BSTAR":0.0013123032,"MEAN_MOTION_DOT":0.00036042,"MEAN_MOTION_DDOT":0}]
